{"type": "FeatureCollection", "features": [{"type": "Feature", "geometry": {"type": "LineString", "coordinates": [[77.8052, 35.5014], [77.8474, 35.457], [77.8897, 35.4126], [77.9319, 35.457], [77.9742, 35.5014], [78.0587, 35.5014], [78.101, 35.457], [78.0587, 35.4126], [78.0165, 35.3682], [78.0165, 35.2794], [78.0165, 35.1905], [78.0587, 35.1461], [78.101, 35.1017], [78.101, 35.0129], [78.1433, 34.9685], [78.1855, 34.9241], [78.1855, 34.8352], [78.1855, 34.7464], [78.2278, 34.702], [78.3123, 34.702], [78.3546, 34.6576], [78.3968, 34.6132], [78.4814, 34.6132], [78.5659, 34.6132], [78.6082, 34.5688], [78.6504, 34.5244], [78.735, 34.5244], [78.7772, 34.4799], [78.8195, 34.4355], [78.8617, 34.3911], [78.904, 34.3467], [78.9885, 34.3467], [79.0308, 34.3023], [78.9885, 34.2579], [78.9463, 34.2135], [78.904, 34.1691], [78.8195, 34.1691], [78.7772, 34.1246], [78.7772, 34.0358], [78.735, 33.9914], [78.6927, 33.947], [78.6927, 33.8582], [78.735, 33.8138], [78.7772, 33.7693], [78.735, 33.7249], [78.6927, 33.6805], [78.735, 33.6361], [78.7772, 33.5917], [78.7772, 33.5029], [78.8195, 33.4585], [78.8617, 33.414], [78.904, 33.3696], [78.9885, 33.3696], [79.0308, 33.3252], [79.0308, 33.2364], [79.0731, 33.192], [79.1576, 33.192], [79.2421, 33.192], [79.3266, 33.192], [79.4112, 33.192], [79.4534, 33.1476], [79.4112, 33.1032], [79.3689, 33.0587], [79.3689, 32.9699], [79.4112, 32.9255], [79.4534, 32.8811], [79.4534, 32.7923], [79.4957, 32.7479], [79.538, 32.7034], [79.538, 32.6146], [79.4957, 32.5702], [79.4112, 32.5702], [79.3689, 32.5258], [79.3266, 32.4814], [79.2421, 32.4814], [79.1576, 32.4814], [79.1153, 32.437], [79.0731, 32.3926], [78.9885, 32.3926], [78.904, 32.3926], [78.8617, 32.437], [78.8195, 32.4814], [78.7772, 32.5258], [78.7772, 32.6146], [78.735, 32.659], [78.6504, 32.659], [78.6082, 32.6146], [78.5659, 32.5702], [78.4814, 32.5702], [78.4391, 32.5258], [78.4391, 32.437], [78.4391, 32.3481], [78.4391, 32.2593], [78.4814, 32.2149], [78.5659, 32.2149], [78.6082, 32.1705], [78.6504, 32.1261], [78.6927, 32.0817], [78.735, 32.0372], [78.7772, 31.9928], [78.735, 31.9484], [78.6927, 31.904], [78.6927, 31.8152], [78.6927, 31.7264], [78.735, 31.6819], [78.7772, 31.6375], [78.7772, 31.5487], [78.7772, 31.4599], [78.8195, 31.4155], [78.8617, 31.3711], [78.8617, 31.2822], [78.904, 31.2378], [78.9463, 31.2822], [78.9885, 31.3266], [79.0308, 31.3711], [79.0308, 31.4599], [79.0731, 31.5043], [79.1153, 31.4599], [79.1576, 31.4155], [79.1999, 31.3711], [79.2421, 31.3266], [79.2844, 31.2822], [79.2844, 31.1934], [79.3266, 31.149], [79.3689, 31.1046], [79.4112, 31.0602], [79.4957, 31.0602], [79.538, 31.0158], [79.5802, 30.9713], [79.6648, 30.9713], [79.7493, 30.9713], [79.8338, 30.9713], [79.8761, 30.9269], [79.9183, 30.8825], [80.0029, 30.8825], [80.0451, 30.8381], [80.0874, 30.7937], [80.1719, 30.7937], [80.2142, 30.7493], [80.2142, 30.6605], [80.2564, 30.616], [80.2987, 30.5716], [80.341, 30.5272], [80.4255, 30.5272], [80.4678, 30.4828], [80.51, 30.4384], [80.5946, 30.4384], [80.6791, 30.4384], [80.7213, 30.394], [80.7636, 30.3496], [80.8481, 30.3496], [80.8904, 30.3052], [80.8904, 30.2163], [80.8904, 30.1275], [80.8481, 30.0831], [80.7636, 30.0831], [80.7213, 30.0387], [80.6791, 29.9943], [80.5946, 29.9943], [80.5523, 29.9499], [80.5523, 29.861], [80.51, 29.8166], [80.4255, 29.8166], [80.3832, 29.7722], [80.3832, 29.6834], [80.3832, 29.5946], [80.341, 29.5501], [80.2987, 29.5057], [80.2564, 29.4613], [80.2142, 29.4169], [80.2564, 29.3725], [80.2987, 29.3281], [80.2987, 29.2393], [80.2987, 29.1504], [80.2564, 29.106], [80.1719, 29.106], [80.1297, 29.0616], [80.1297, 28.9728], [80.0874, 28.9284], [80.0451, 28.884], [80.0874, 28.8395], [80.1297, 28.7951], [80.1719, 28.7507], [80.2564, 28.7507], [80.2987, 28.7063], [80.341, 28.6619], [80.4255, 28.6619], [80.4678, 28.6175], [80.51, 28.5731], [80.5523, 28.6175], [80.5946, 28.6619], [80.6791, 28.6619], [80.7213, 28.6175], [80.7636, 28.5731], [80.8059, 28.5287], [80.8481, 28.4842], [80.9327, 28.4842], [80.9749, 28.4398], [81.0172, 28.3954], [81.1017, 28.3954], [81.1862, 28.3954], [81.2285, 28.351], [81.2285, 28.2622], [81.2708, 28.2178], [81.313, 28.1734], [81.3553, 28.1289], [81.4398, 28.1289], [81.4821, 28.0845], [81.5244, 28.0401], [81.6089, 28.0401], [81.6511, 27.9957], [81.6934, 27.9513], [81.7779, 27.9513], [81.8202, 27.9069], [81.8625, 27.8625], [81.947, 27.8625], [81.9893, 27.9069], [82.0315, 27.9513], [82.0738, 27.9069], [82.116, 27.8625], [82.2006, 27.8625], [82.2428, 27.8181], [82.2851, 27.7736], [82.3696, 27.7736], [82.4119, 27.7292], [82.4542, 27.6848], [82.5387, 27.6848], [82.6232, 27.6848], [82.7077, 27.6848], [82.75, 27.6404], [82.75, 27.5516], [82.7923, 27.5072], [82.8768, 27.5072], [82.9613, 27.5072], [83.0036, 27.4628], [83.0458, 27.4183], [83.1304, 27.4183], [83.2149, 27.4183], [83.2572, 27.3739], [83.2994, 27.3295], [83.384, 27.3295], [83.4262, 27.3739], [83.4262, 27.4628], [83.4685, 27.5072], [83.553, 27.5072], [83.5953, 27.4628], [83.6375, 27.4183], [83.7221, 27.4183], [83.8066, 27.4183], [83.8489, 27.3739], [83.8911, 27.3295], [83.9334, 27.3739], [83.9756, 27.4183], [84.0602, 27.4183], [84.1024, 27.4628], [84.1447, 27.5072], [84.187, 27.4628], [84.2292, 27.4183], [84.3138, 27.4183], [84.356, 27.3739], [84.3983, 27.3295], [84.4828, 27.3295], [84.5673, 27.3295], [84.6519, 27.3295], [84.6941, 27.2851], [84.6941, 27.1963], [84.6941, 27.1074], [84.6941, 27.0186], [84.7364, 26.9742], [84.7787, 27.0186], [84.8209, 27.063], [84.8632, 27.0186], [84.9054, 26.9742], [84.9477, 26.9298], [84.99, 26.8854], [85.0745, 26.8854], [85.159, 26.8854], [85.2013, 26.841], [85.2436, 26.7966], [85.2858, 26.7521], [85.3281, 26.7077], [85.3703, 26.7521], [85.4126, 26.7966], [85.4971, 26.7966], [85.5394, 26.841], [85.5817, 26.8854], [85.6662, 26.8854], [85.7085, 26.841], [85.7085, 26.7521], [85.7085, 26.6633], [85.7507, 26.6189], [85.8352, 26.6189], [85.9198, 26.6189], [86.0043, 26.6189], [86.0888, 26.6189], [86.1734, 26.6189], [86.2579, 26.6189], [86.3424, 26.6189], [86.4269, 26.6189], [86.4692, 26.5745], [86.5115, 26.5301], [86.596, 26.5301], [86.6383, 26.4857], [86.6805, 26.4413], [86.765, 26.4413], [86.8496, 26.4413], [86.8918, 26.4857], [86.9341, 26.5301], [87.0186, 26.5301], [87.0609, 26.4857], [87.1032, 26.4413], [87.1877, 26.4413], [87.2299, 26.3968], [87.2722, 26.3524], [87.3567, 26.3524], [87.399, 26.3968], [87.4413, 26.4413], [87.5258, 26.4413], [87.5681, 26.3968], [87.6103, 26.3524], [87.6526, 26.3968], [87.6948, 26.4413], [87.7794, 26.4413], [87.8639, 26.4413], [87.9484, 26.4413], [87.9907, 26.3968], [88.033, 26.3524], [88.0752, 26.3968], [88.0752, 26.4857], [88.1175, 26.5301], [88.1597, 26.5745], [88.1597, 26.6633], [88.1597, 26.7521], [88.1597, 26.841], [88.1597, 26.9298], [88.1175, 26.9742], [88.0752, 27.0186], [88.033, 27.063], [87.9907, 27.1074], [87.9907, 27.1963], [88.033, 27.2407], [88.0752, 27.2851], [88.0752, 27.3739], [88.0752, 27.4628], [88.0752, 27.5516], [88.1175, 27.596], [88.1597, 27.6404], [88.1597, 27.7292], [88.1597, 27.8181], [88.1175, 27.8625], [88.0752, 27.9069], [88.1175, 27.9513], [88.202, 27.9513], [88.2865, 27.9513], [88.3711, 27.9513], [88.4133, 27.9957], [88.4556, 28.0401], [88.5401, 28.0401], [88.5824, 28.0845], [88.6246, 28.1289], [88.6669, 28.0845], [88.7092, 28.0401], [88.7937, 28.0401], [88.836, 27.9957], [88.836, 27.9069], [88.836, 27.8181], [88.836, 27.7292], [88.836, 27.6404], [88.7937, 27.596], [88.7514, 27.5516], [88.7514, 27.4628], [88.7937, 27.4183], [88.836, 27.3739], [88.8782, 27.3295], [88.9205, 27.2851], [88.8782, 27.2407], [88.7937, 27.2407], [88.7514, 27.1963], [88.7937, 27.1519], [88.836, 27.1074], [88.836, 27.0186], [88.8782, 26.9742], [88.9205, 26.9298], [88.9628, 26.8854], [89.0473, 26.8854], [89.0895, 26.841], [89.1318, 26.7966], [89.2163, 26.7966], [89.2586, 26.841], [89.3009, 26.8854], [89.3854, 26.8854], [89.4277, 26.841], [89.4699, 26.7966], [89.5544, 26.7966], [89.639, 26.7966], [89.6812, 26.7521], [89.7235, 26.7077], [89.808, 26.7077], [89.8926, 26.7077], [89.9771, 26.7077], [90.0616, 26.7077], [90.1039, 26.7521], [90.1461, 26.7966], [90.1884, 26.841], [90.2307, 26.8854], [90.3152, 26.8854], [90.3997, 26.8854], [90.4842, 26.8854], [90.5265, 26.841], [90.5688, 26.7966], [90.6533, 26.7966], [90.7378, 26.7966], [90.8223, 26.7966], [90.9069, 26.7966], [90.9914, 26.7966], [91.0759, 26.7966], [91.1605, 26.7966], [91.245, 26.7966], [91.3295, 26.7966], [91.414, 26.7966], [91.4986, 26.7966], [91.5831, 26.7966], [91.6676, 26.7966], [91.7521, 26.7966], [91.7944, 26.841], [91.8367, 26.8854], [91.9212, 26.8854], [92.0057, 26.8854], [92.0903, 26.8854], [92.1325, 26.9298], [92.0903, 26.9742], [92.048, 27.0186], [92.048, 27.1074], [92.048, 27.1963], [92.0903, 27.2407], [92.1325, 27.2851], [92.0903, 27.3295], [92.048, 27.3739], [92.048, 27.4628], [92.0057, 27.5072], [91.9212, 27.5072], [91.8367, 27.5072], [91.7521, 27.5072], [91.6676, 27.5072], [91.6254, 27.5516], [91.5831, 27.596], [91.5408, 27.6404], [91.5831, 27.6848], [91.6254, 27.7292], [91.5831, 27.7736], [91.5408, 27.8181], [91.5831, 27.8625], [91.6676, 27.8625], [91.7099, 27.8181], [91.7521, 27.7736], [91.8367, 27.7736], [91.8789, 27.7292], [91.9212, 27.6848], [91.9635, 27.7292], [92.0057, 27.7736], [92.0903, 27.7736], [92.1325, 27.8181], [92.1748, 27.8625], [92.2593, 27.8625], [92.3016, 27.8181], [92.3438, 27.7736], [92.4284, 27.7736], [92.4706, 27.8181], [92.5129, 27.8625], [92.5974, 27.8625], [92.6397, 27.9069], [92.6819, 27.9513], [92.7242, 27.9957], [92.6819, 28.0401], [92.6397, 28.0845], [92.6819, 28.1289], [92.7665, 28.1289], [92.8087, 28.1734], [92.851, 28.2178], [92.9355, 28.2178], [93.0201, 28.2178], [93.0623, 28.2622], [93.1046, 28.3066], [93.1891, 28.3066], [93.2314, 28.351], [93.1891, 28.3954], [93.1468, 28.4398], [93.1891, 28.4842], [93.2736, 28.4842], [93.3159, 28.5287], [93.3159, 28.6175], [93.3582, 28.6619], [93.4427, 28.6619], [93.5272, 28.6619], [93.6117, 28.6619], [93.6963, 28.6619], [93.7808, 28.6619], [93.8653, 28.6619], [93.9499, 28.6619], [93.9921, 28.7063], [93.9921, 28.7951], [94.0344, 28.8395], [94.0766, 28.884], [94.1189, 28.9284], [94.1612, 28.9728], [94.1612, 29.0616], [94.2034, 29.106], [94.288, 29.106], [94.3302, 29.1504], [94.3725, 29.1948], [94.457, 29.1948], [94.5415, 29.1948], [94.5838, 29.2393], [94.5838, 29.3281], [94.6261, 29.3725], [94.6683, 29.3281], [94.7106, 29.2837], [94.7529, 29.2393], [94.7951, 29.1948], [94.8797, 29.1948], [94.9642, 29.1948], [95.0487, 29.1948], [95.091, 29.1504], [95.1332, 29.106], [95.2178, 29.106], [95.3023, 29.106], [95.3446, 29.0616], [95.3868, 29.0172], [95.4291, 29.0616], [95.4713, 29.106], [95.5136, 29.1504], [95.5559, 29.1948], [95.5981, 29.2393], [95.6404, 29.2837], [95.7249, 29.2837], [95.7672, 29.3281], [95.8095, 29.3725], [95.894, 29.3725], [95.9785, 29.3725], [96.0208, 29.4169], [96.063, 29.4613], [96.1053, 29.4169], [96.1476, 29.3725], [96.1898, 29.3281], [96.2321, 29.2837], [96.3166, 29.2837], [96.3589, 29.2393], [96.3166, 29.1948], [96.2744, 29.1504], [96.2321, 29.106], [96.1476, 29.106], [96.1053, 29.0616], [96.1476, 29.0172], [96.1898, 28.9728], [96.2321, 28.9284], [96.2744, 28.9728], [96.3166, 29.0172], [96.4011, 29.0172], [96.4434, 28.9728], [96.4857, 28.9284], [96.5279, 28.884], [96.5702, 28.8395], [96.6125, 28.7951], [96.5702, 28.7507], [96.5279, 28.7063], [96.4857, 28.6619], [96.4434, 28.6175], [96.4011, 28.5731], [96.3589, 28.5287], [96.3166, 28.4842], [96.2744, 28.4398], [96.3166, 28.3954], [96.3589, 28.351], [96.4011, 28.3066], [96.4434, 28.351], [96.4857, 28.3954], [96.5279, 28.4398], [96.5702, 28.4842], [96.6547, 28.4842], [96.697, 28.4398], [96.7393, 28.3954], [96.8238, 28.3954], [96.9083, 28.3954], [96.9506, 28.351], [96.9928, 28.3066], [97.0351, 28.351], [97.0774, 28.3954], [97.1196, 28.351], [97.1619, 28.3066], [97.2464, 28.3066], [97.2887, 28.2622], [97.3309, 28.2178], [97.3732, 28.1734], [97.3309, 28.1289], [97.2887, 28.0845], [97.3309, 28.0401], [97.3732, 27.9957], [97.3732, 27.9069], [97.3309, 27.8625], [97.2464, 27.8625], [97.1619, 27.8625], [97.1196, 27.8181], [97.0774, 27.7736], [97.0351, 27.7292], [96.9928, 27.6848], [96.9506, 27.6404], [96.9506, 27.5516], [96.9506, 27.4628], [96.9506, 27.3739], [96.9928, 27.3295], [97.0351, 27.2851], [97.0774, 27.2407], [97.1196, 27.1963], [97.0774, 27.1519], [96.9928, 27.1519], [96.9083, 27.1519], [96.866, 27.1963], [96.866, 27.2851], [96.8238, 27.3295], [96.7393, 27.3295], [96.6547, 27.3295], [96.5702, 27.3295], [96.4857, 27.3295], [96.4011, 27.3295], [96.3166, 27.3295], [96.2744, 27.2851], [96.2321, 27.2407], [96.1476, 27.2407], [96.063, 27.2407], [96.0208, 27.1963], [95.9785, 27.1519], [95.9362, 27.1074], [95.894, 27.063], [95.8095, 27.063], [95.7672, 27.0186], [95.7672, 26.9298], [95.7249, 26.8854], [95.6404, 26.8854], [95.5981, 26.841], [95.5559, 26.7966], [95.5136, 26.7521], [95.4713, 26.7077], [95.3868, 26.7077], [95.3446, 26.6633], [95.3023, 26.6189], [95.2178, 26.6189], [95.1755, 26.5745], [95.1332, 26.5301], [95.091, 26.4857], [95.091, 26.3968], [95.091, 26.308], [95.1332, 26.2636], [95.1755, 26.2192], [95.1332, 26.1748], [95.091, 26.1304], [95.1332, 26.086], [95.1755, 26.0415], [95.1332, 25.9971], [95.091, 25.9527], [95.0487, 25.9083], [95.0064, 25.8639], [95.0064, 25.7751], [94.9642, 25.7307], [94.9219, 25.6862], [94.9219, 25.5974], [94.8797, 25.553], [94.8374, 25.5086], [94.7951, 25.4642], [94.7106, 25.4642], [94.6683, 25.4198], [94.6261, 25.3754], [94.5838, 25.3309], [94.5838, 25.2421], [94.6261, 25.1977], [94.6683, 25.1533], [94.7106, 25.1089], [94.7529, 25.0645], [94.7106, 25.0201], [94.6683, 24.9756], [94.6683, 24.8868], [94.6261, 24.8424], [94.5838, 24.798], [94.5838, 24.7092], [94.5415, 24.6648], [94.4993, 24.6203], [94.457, 24.5759], [94.4148, 24.5315], [94.4148, 24.4427], [94.3725, 24.3983], [94.3302, 24.3539], [94.3302, 24.265], [94.288, 24.2206], [94.2457, 24.1762], [94.2457, 24.0874], [94.2457, 23.9986], [94.2034, 23.9542], [94.1612, 23.9097], [94.1189, 23.8653], [94.0766, 23.9097], [94.0344, 23.9542], [93.9499, 23.9542], [93.8653, 23.9542], [93.7808, 23.9542], [93.7385, 23.9986], [93.6963, 24.043], [93.654, 23.9986], [93.6117, 23.9542], [93.5272, 23.9542], [93.485, 23.9986], [93.4427, 24.043], [93.4004, 24.0874], [93.3582, 24.1318], [93.3159, 24.0874], [93.3159, 23.9986], [93.3582, 23.9542], [93.4004, 23.9097], [93.4004, 23.8209], [93.4004, 23.7321], [93.4004, 23.6433], [93.4004, 23.5544], [93.4004, 23.4656], [93.4004, 23.3768], [93.4004, 23.288], [93.4004, 23.1991], [93.4004, 23.1103], [93.3582, 23.0659], [93.3159, 23.0215], [93.2736, 22.9771], [93.2314, 23.0215], [93.1891, 23.0659], [93.1468, 23.0215], [93.1468, 22.9327], [93.1468, 22.8438], [93.1468, 22.755], [93.1468, 22.6662], [93.1468, 22.5774], [93.1468, 22.4885], [93.1891, 22.4441], [93.2314, 22.3997], [93.2314, 22.3109], [93.1891, 22.2665], [93.1468, 22.2221], [93.1046, 22.1777], [93.0623, 22.1332], [93.0201, 22.0888], [92.9778, 22.0444], [92.9355, 22.0], [92.8933, 22.0444], [92.851, 22.0888], [92.7665, 22.0888], [92.7242, 22.0444], [92.6819, 22.0], [92.6397, 22.0444], [92.5974, 22.0888], [92.5552, 22.1332], [92.5974, 22.1777], [92.6397, 22.2221], [92.5974, 22.2665], [92.5552, 22.3109], [92.5552, 22.3997], [92.5552, 22.4885], [92.5552, 22.5774], [92.5552, 22.6662], [92.5129, 22.7106], [92.4706, 22.755], [92.4706, 22.8438], [92.4284, 22.8883], [92.3861, 22.9327], [92.3861, 23.0215], [92.3861, 23.1103], [92.3861, 23.1991], [92.3861, 23.288], [92.3861, 23.3768], [92.3438, 23.4212], [92.3016, 23.4656], [92.3016, 23.5544], [92.3016, 23.6433], [92.2593, 23.6877], [92.217, 23.7321], [92.1748, 23.7765], [92.1325, 23.7321], [92.0903, 23.6877], [92.0057, 23.6877], [91.9635, 23.6433], [91.9635, 23.5544], [91.9635, 23.4656], [91.9212, 23.4212], [91.8789, 23.3768], [91.8367, 23.3324], [91.7944, 23.288], [91.7944, 23.1991], [91.7944, 23.1103], [91.7944, 23.0215], [91.7521, 22.9771], [91.6676, 22.9771], [91.5831, 22.9771], [91.5408, 23.0215], [91.5408, 23.1103], [91.4986, 23.1547], [91.4563, 23.1991], [91.414, 23.2436], [91.3295, 23.2436], [91.2872, 23.288], [91.2872, 23.3768], [91.2872, 23.4656], [91.245, 23.51], [91.2027, 23.5544], [91.2027, 23.6433], [91.1605, 23.6877], [91.1182, 23.7321], [91.1605, 23.7765], [91.2027, 23.8209], [91.245, 23.8653], [91.2872, 23.9097], [91.3295, 23.9542], [91.3718, 23.9986], [91.3718, 24.0874], [91.414, 24.1318], [91.4986, 24.1318], [91.5408, 24.0874], [91.5831, 24.043], [91.6254, 24.0874], [91.6254, 24.1762], [91.6676, 24.2206], [91.7099, 24.1762], [91.7521, 24.1318], [91.7944, 24.1762], [91.8367, 24.2206], [91.9212, 24.2206], [91.9635, 24.265], [91.9635, 24.3539], [92.0057, 24.3983], [92.0903, 24.3983], [92.1325, 24.4427], [92.1325, 24.5315], [92.1748, 24.5759], [92.217, 24.6203], [92.2593, 24.6648], [92.3016, 24.7092], [92.3016, 24.798], [92.3438, 24.8424], [92.4284, 24.8424], [92.4706, 24.8868], [92.4706, 24.9756], [92.4284, 25.0201], [92.3861, 25.0645], [92.3438, 25.1089], [92.2593, 25.1089], [92.1748, 25.1089], [92.1325, 25.1533], [92.0903, 25.1977], [92.0057, 25.1977], [91.9212, 25.1977], [91.8367, 25.1977], [91.7521, 25.1977], [91.7099, 25.1533], [91.6676, 25.1089], [91.6254, 25.1533], [91.5831, 25.1977], [91.5408, 25.1533], [91.4986, 25.1089], [91.4563, 25.1533], [91.414, 25.1977], [91.3295, 25.1977], [91.245, 25.1977], [91.1605, 25.1977], [91.0759, 25.1977], [90.9914, 25.1977], [90.9069, 25.1977], [90.8223, 25.1977], [90.7378, 25.1977], [90.6533, 25.1977], [90.5688, 25.1977], [90.4842, 25.1977], [90.3997, 25.1977], [90.3152, 25.1977], [90.2307, 25.1977], [90.1461, 25.1977], [90.1039, 25.2421], [90.0616, 25.2865], [89.9771, 25.2865], [89.8926, 25.2865], [89.8503, 25.3309], [89.8503, 25.4198], [89.8503, 25.5086], [89.8503, 25.5974], [89.8503, 25.6862], [89.8503, 25.7751], [89.8503, 25.8639], [89.8503, 25.9527], [89.808, 25.9971], [89.7658, 26.0415], [89.7658, 26.1304], [89.7235, 26.1748], [89.6812, 26.2192], [89.639, 26.2636], [89.5967, 26.2192], [89.5967, 26.1304], [89.5967, 26.0415], [89.5544, 25.9971], [89.4699, 25.9971], [89.3854, 25.9971], [89.3431, 26.0415], [89.3009, 26.086], [89.2163, 26.086], [89.1741, 26.1304], [89.1741, 26.2192], [89.1741, 26.308], [89.1318, 26.3524], [89.0895, 26.3968], [89.0473, 26.4413], [88.9628, 26.4413], [88.9205, 26.3968], [88.9628, 26.3524], [89.005, 26.308], [88.9628, 26.2636], [88.8782, 26.2636], [88.836, 26.308], [88.7937, 26.3524], [88.7092, 26.3524], [88.6669, 26.3968], [88.6246, 26.4413], [88.5401, 26.4413], [88.4979, 26.4857], [88.4556, 26.5301], [88.4133, 26.5745], [88.3711, 26.6189], [88.3288, 26.5745], [88.3711, 26.5301], [88.4133, 26.4857], [88.4556, 26.4413], [88.4979, 26.3968], [88.4556, 26.3524], [88.4133, 26.308], [88.3711, 26.2636], [88.3288, 26.2192], [88.2865, 26.1748], [88.202, 26.1748], [88.1597, 26.1304], [88.1597, 26.0415], [88.1597, 25.9527], [88.1175, 25.9083], [88.0752, 25.8639], [88.1175, 25.8195], [88.202, 25.8195], [88.2443, 25.7751], [88.2865, 25.7307], [88.3711, 25.7307], [88.4133, 25.6862], [88.4133, 25.5974], [88.4556, 25.553], [88.5401, 25.553], [88.5824, 25.5086], [88.6246, 25.4642], [88.7092, 25.4642], [88.7514, 25.5086], [88.7937, 25.553], [88.836, 25.5086], [88.836, 25.4198], [88.8782, 25.3754], [88.9205, 25.3309], [88.9205, 25.2421], [88.8782, 25.1977], [88.7937, 25.1977], [88.7092, 25.1977], [88.6246, 25.1977], [88.5401, 25.1977], [88.4979, 25.1533], [88.4556, 25.1089], [88.4133, 25.0645], [88.4133, 24.9756], [88.3711, 24.9312], [88.2865, 24.9312], [88.202, 24.9312], [88.1597, 24.8868], [88.1175, 24.8424], [88.0752, 24.798], [88.0752, 24.7092], [88.0752, 24.6203], [88.1175, 24.5759], [88.1597, 24.5315], [88.202, 24.4871], [88.2443, 24.4427], [88.2865, 24.3983], [88.3711, 24.3983], [88.4556, 24.3983], [88.4979, 24.3539], [88.5401, 24.3095], [88.6246, 24.3095], [88.7092, 24.3095], [88.7514, 24.265], [88.7514, 24.1762], [88.7514, 24.0874], [88.7514, 23.9986], [88.7092, 23.9542], [88.6669, 23.9097], [88.6246, 23.8653], [88.5824, 23.8209], [88.5824, 23.7321], [88.5824, 23.6433], [88.6246, 23.5989], [88.6669, 23.5544], [88.7092, 23.51], [88.7514, 23.4656], [88.7514, 23.3768], [88.7092, 23.3324], [88.6669, 23.288], [88.7092, 23.2436], [88.7937, 23.2436], [88.8782, 23.2436], [88.9628, 23.2436], [89.005, 23.1991], [88.9628, 23.1547], [88.9205, 23.1103], [88.8782, 23.0659], [88.836, 23.0215], [88.8782, 22.9771], [88.9205, 22.9327], [88.9628, 22.8883], [89.005, 22.8438], [88.9628, 22.7994], [88.9205, 22.755], [88.8782, 22.7106], [88.836, 22.6662], [88.8782, 22.6218], [88.9205, 22.5774], [88.9628, 22.533], [89.005, 22.4885], [89.005, 22.3997], [89.005, 22.3109], [88.9628, 22.2665], [88.9205, 22.2221], [88.9628, 22.1777], [89.0473, 22.1777], [89.0895, 22.1332], [89.0473, 22.0888], [89.005, 22.0444], [89.0473, 22.0], [89.0895, 21.9556], [89.0473, 21.9112], [89.005, 21.8668], [88.9628, 21.8223], [88.9205, 21.7779], [88.9628, 21.7335], [89.0473, 21.7335], [89.0895, 21.6891], [89.0473, 21.6447], [88.9628, 21.6447], [88.8782, 21.6447], [88.7937, 21.6447], [88.7514, 21.6891], [88.7937, 21.7335], [88.836, 21.7779], [88.836, 21.8668], [88.7937, 21.9112], [88.7514, 21.9556], [88.7092, 22.0], [88.6246, 22.0], [88.5824, 21.9556], [88.5401, 21.9112], [88.4979, 21.8668], [88.5401, 21.8223], [88.5824, 21.7779], [88.5824, 21.6891], [88.5824, 21.6003], [88.5401, 21.5559], [88.4979, 21.6003], [88.4556, 21.6447], [88.4133, 21.6891], [88.3711, 21.7335], [88.3288, 21.7779], [88.2865, 21.8223], [88.202, 21.8223], [88.1597, 21.8668], [88.1597, 21.9556], [88.202, 22.0], [88.2443, 22.0444], [88.2443, 22.1332], [88.202, 22.1777], [88.1597, 22.1332], [88.1597, 22.0444], [88.1175, 22.0], [88.033, 22.0], [87.9907, 21.9556], [87.9907, 21.8668], [87.9484, 21.8223], [87.9062, 21.7779], [87.8639, 21.7335], [87.7794, 21.7335], [87.7371, 21.6891], [87.6948, 21.6447], [87.6103, 21.6447], [87.5258, 21.6447], [87.4835, 21.6003], [87.4413, 21.5559], [87.3567, 21.5559], [87.2722, 21.5559], [87.1877, 21.5559], [87.1454, 21.5115], [87.1032, 21.467], [87.0186, 21.467], [86.9764, 21.4226], [86.9341, 21.3782], [86.8918, 21.3338], [86.8918, 21.245], [86.8496, 21.2006], [86.8073, 21.1562], [86.8496, 21.1117], [86.8918, 21.0673], [86.8918, 20.9785], [86.9341, 20.9341], [86.9764, 20.8897], [86.9764, 20.8009], [86.9341, 20.7564], [86.8918, 20.712], [86.8918, 20.6232], [86.8496, 20.5788], [86.8073, 20.6232], [86.765, 20.6676], [86.7228, 20.6232], [86.765, 20.5788], [86.8073, 20.5344], [86.765, 20.49], [86.7228, 20.4456], [86.765, 20.4011], [86.8073, 20.3567], [86.765, 20.3123], [86.6805, 20.3123], [86.6383, 20.2679], [86.596, 20.2235], [86.5115, 20.2235], [86.4692, 20.1791], [86.4692, 20.0903], [86.4269, 20.0458], [86.3847, 20.0014], [86.3424, 19.957], [86.2579, 19.957], [86.2156, 19.9126], [86.1734, 19.8682], [86.0888, 19.8682], [86.0043, 19.8682], [85.962, 19.8238], [85.9198, 19.7794], [85.8352, 19.7794], [85.7507, 19.7794], [85.6662, 19.7794], [85.6239, 19.735], [85.5817, 19.6905], [85.4971, 19.6905], [85.4549, 19.6461], [85.4126, 19.6017], [85.3281, 19.6017], [85.2858, 19.5573], [85.2436, 19.5129], [85.2013, 19.4685], [85.159, 19.4241], [85.1168, 19.3797], [85.0745, 19.3352], [84.99, 19.3352], [84.9477, 19.2908], [84.9054, 19.2464], [84.8632, 19.202], [84.8209, 19.1576], [84.7364, 19.1576], [84.6941, 19.1132], [84.6941, 19.0244], [84.6519, 18.9799], [84.6096, 18.9355], [84.6096, 18.8467], [84.5673, 18.8023], [84.5251, 18.7579], [84.4828, 18.7135], [84.4405, 18.6691], [84.3983, 18.6246], [84.356, 18.5802], [84.3138, 18.5358], [84.2715, 18.4914], [84.2292, 18.447], [84.187, 18.4026], [84.1447, 18.3582], [84.1024, 18.3138], [84.0602, 18.2693], [83.9756, 18.2693], [83.9334, 18.2249], [83.8911, 18.1805], [83.8066, 18.1805], [83.7643, 18.1361], [83.7221, 18.0917], [83.6375, 18.0917], [83.5953, 18.0473], [83.553, 18.0029], [83.5107, 17.9585], [83.4685, 17.914], [83.4262, 17.8696], [83.4262, 17.7808], [83.384, 17.7364], [83.2994, 17.7364], [83.2572, 17.692], [83.2572, 17.6032], [83.2149, 17.5587], [83.1304, 17.5587], [83.0458, 17.5587], [83.0036, 17.5143], [82.9613, 17.4699], [82.9191, 17.4255], [82.8768, 17.3811], [82.7923, 17.3811], [82.7077, 17.3811], [82.6655, 17.3367], [82.6232, 17.2923], [82.5809, 17.2479], [82.5387, 17.2034], [82.4542, 17.2034], [82.4119, 17.159], [82.3696, 17.1146], [82.3274, 17.0702], [82.2851, 17.0258], [82.2428, 16.9814], [82.2428, 16.8926], [82.2851, 16.8481], [82.3274, 16.8037], [82.3274, 16.7149], [82.2851, 16.6705], [82.2428, 16.6261], [82.2428, 16.5372], [82.2006, 16.4928], [82.116, 16.4928], [82.0738, 16.4484], [82.0315, 16.404], [81.947, 16.404], [81.8625, 16.404], [81.8202, 16.3596], [81.7779, 16.3152], [81.6934, 16.3152], [81.6089, 16.3152], [81.5244, 16.3152], [81.4398, 16.3152], [81.3553, 16.3152], [81.2708, 16.3152], [81.2285, 16.2708], [81.2285, 16.1819], [81.1862, 16.1375], [81.144, 16.0931], [81.144, 16.0043], [81.1017, 15.9599], [81.0595, 15.9155], [81.0172, 15.8711], [80.9749, 15.8266], [80.9749, 15.7378], [80.9327, 15.6934], [80.8481, 15.6934], [80.8059, 15.7378], [80.8059, 15.8266], [80.7636, 15.8711], [80.6791, 15.8711], [80.5946, 15.8711], [80.51, 15.8711], [80.4678, 15.8266], [80.4255, 15.7822], [80.341, 15.7822], [80.2987, 15.7378], [80.2987, 15.649], [80.2564, 15.6046], [80.2142, 15.5602], [80.2142, 15.4713], [80.1719, 15.4269], [80.1297, 15.3825], [80.1297, 15.2937], [80.0874, 15.2493], [80.0451, 15.2049], [80.0451, 15.116], [80.0451, 15.0272], [80.0451, 14.9384], [80.0451, 14.8496], [80.0874, 14.8052], [80.1297, 14.7607], [80.1297, 14.6719], [80.1719, 14.6275], [80.2142, 14.5831], [80.2142, 14.4943], [80.2142, 14.4054], [80.1719, 14.361], [80.1297, 14.3166], [80.1297, 14.2278], [80.1297, 14.139], [80.1297, 14.0501], [80.1719, 14.0057], [80.2142, 13.9613], [80.2142, 13.8725], [80.2142, 13.7837], [80.2142, 13.6948], [80.1719, 13.6504], [80.0874, 13.6504], [80.0451, 13.606], [80.0874, 13.5616], [80.1297, 13.5172], [80.1719, 13.4728], [80.2564, 13.4728], [80.2987, 13.4284], [80.341, 13.384], [80.3832, 13.3395], [80.341, 13.2951], [80.2987, 13.2507], [80.2987, 13.1619], [80.2987, 13.0731], [80.2987, 12.9842], [80.2564, 12.9398], [80.2142, 12.8954], [80.2142, 12.8066], [80.2142, 12.7178], [80.2142, 12.6289], [80.1719, 12.5845], [80.1297, 12.5401], [80.1297, 12.4513], [80.0874, 12.4069], [80.0451, 12.3625], [80.0451, 12.2736], [80.0029, 12.2292], [79.9606, 12.1848], [79.9183, 12.1404], [79.8761, 12.096], [79.8761, 12.0072], [79.8338, 11.9628], [79.7915, 11.9183], [79.7915, 11.8295], [79.7915, 11.7407], [79.7915, 11.6519], [79.7915, 11.563], [79.7915, 11.4742], [79.7915, 11.3854], [79.8338, 11.341], [79.8761, 11.2966], [79.8761, 11.2077], [79.8761, 11.1189], [79.8761, 11.0301], [79.8761, 10.9413], [79.8761, 10.8524], [79.8761, 10.7636], [79.8761, 10.6748], [79.8761, 10.586], [79.8761, 10.4971], [79.8761, 10.4083], [79.8761, 10.3195], [79.8338, 10.2751], [79.7493, 10.2751], [79.6648, 10.2751], [79.5802, 10.2751], [79.538, 10.3195], [79.4957, 10.3639], [79.4534, 10.3195], [79.4112, 10.2751], [79.3266, 10.2751], [79.2844, 10.2307], [79.2421, 10.1862], [79.1999, 10.1418], [79.2421, 10.0974], [79.2844, 10.053], [79.2421, 10.0086], [79.1999, 9.9642], [79.1576, 9.9198], [79.1153, 9.8754], [79.0731, 9.8309], [79.0308, 9.7865], [78.9885, 9.7421], [78.9463, 9.6977], [78.9463, 9.6089], [78.9463, 9.5201], [78.9463, 9.4312], [78.9885, 9.3868], [79.0308, 9.3424], [78.9885, 9.298], [78.9463, 9.2536], [78.904, 9.2092], [78.8195, 9.2092], [78.735, 9.2092], [78.6504, 9.2092], [78.6082, 9.1648], [78.5659, 9.1203], [78.4814, 9.1203], [78.3968, 9.1203], [78.3546, 9.0759], [78.3123, 9.0315], [78.2701, 8.9871], [78.2278, 8.9427], [78.1855, 8.8983], [78.1855, 8.8095], [78.1855, 8.7206], [78.1433, 8.6762], [78.101, 8.6318], [78.101, 8.543], [78.101, 8.4542], [78.0587, 8.4097], [78.0165, 8.3653], [77.9742, 8.3209], [77.9319, 8.2765], [77.8897, 8.2321], [77.8052, 8.2321], [77.7629, 8.1877], [77.7206, 8.1433], [77.6361, 8.1433], [77.5938, 8.0989], [77.5516, 8.0544], [77.467, 8.0544], [77.4248, 8.0989], [77.3825, 8.1433], [77.298, 8.1433], [77.2557, 8.1877], [77.2135, 8.2321], [77.1289, 8.2321], [77.0867, 8.2765], [77.0444, 8.3209], [77.0021, 8.3653], [76.9599, 8.4097], [76.9176, 8.4542], [76.8754, 8.4986], [76.8331, 8.543], [76.7908, 8.5874], [76.7486, 8.6318], [76.7486, 8.7206], [76.7063, 8.765], [76.664, 8.8095], [76.6218, 8.8539], [76.5795, 8.8983], [76.5372, 8.9427], [76.495, 8.9871], [76.495, 9.0759], [76.4527, 9.1203], [76.4105, 9.1648], [76.4105, 9.2536], [76.4105, 9.3424], [76.3682, 9.3868], [76.3259, 9.4312], [76.3259, 9.5201], [76.3682, 9.5645], [76.4105, 9.6089], [76.4105, 9.6977], [76.4105, 9.7865], [76.4105, 9.8754], [76.3682, 9.9198], [76.3259, 9.8754], [76.3259, 9.7865], [76.2837, 9.7421], [76.2414, 9.7865], [76.2414, 9.8754], [76.2414, 9.9642], [76.2414, 10.053], [76.1991, 10.0974], [76.1569, 10.1418], [76.1569, 10.2307], [76.1569, 10.3195], [76.1146, 10.3639], [76.0723, 10.4083], [76.0723, 10.4971], [76.0301, 10.5415], [75.9878, 10.586], [75.9878, 10.6748], [75.9456, 10.7192], [75.9033, 10.7636], [75.9033, 10.8524], [75.9033, 10.9413], [75.861, 10.9857], [75.8188, 11.0301], [75.8188, 11.1189], [75.8188, 11.2077], [75.7765, 11.2521], [75.7342, 11.2966], [75.7342, 11.3854], [75.692, 11.4298], [75.6497, 11.4742], [75.6074, 11.5186], [75.5652, 11.563], [75.5652, 11.6519], [75.5229, 11.6963], [75.4807, 11.7407], [75.4384, 11.7851], [75.3961, 11.8295], [75.3539, 11.8739], [75.3116, 11.9183], [75.2693, 11.9628], [75.2271, 12.0072], [75.1848, 12.0516], [75.1426, 12.096], [75.1426, 12.1848], [75.1003, 12.2292], [75.058, 12.2736], [75.058, 12.3625], [75.0158, 12.4069], [74.9735, 12.4513], [74.9735, 12.5401], [74.9312, 12.5845], [74.889, 12.6289], [74.889, 12.7178], [74.8467, 12.7622], [74.8044, 12.8066], [74.8044, 12.8954], [74.8044, 12.9842], [74.8044, 13.0731], [74.7622, 13.1175], [74.7199, 13.1619], [74.7199, 13.2507], [74.7199, 13.3395], [74.7199, 13.4284], [74.7199, 13.5172], [74.6777, 13.5616], [74.6354, 13.606], [74.6354, 13.6948], [74.6354, 13.7837], [74.6354, 13.8725], [74.5931, 13.9169], [74.5509, 13.9613], [74.5086, 14.0057], [74.4663, 14.0501], [74.4663, 14.139], [74.4663, 14.2278], [74.4241, 14.2722], [74.3818, 14.3166], [74.3818, 14.4054], [74.3818, 14.4943], [74.3395, 14.5387], [74.2973, 14.5831], [74.2973, 14.6719], [74.255, 14.7163], [74.1705, 14.7163], [74.1282, 14.7607], [74.1282, 14.8496], [74.086, 14.894], [74.0437, 14.9384], [74.0014, 14.9828], [73.9592, 15.0272], [73.9592, 15.116], [73.9592, 15.2049], [73.9169, 15.2493], [73.8746, 15.2937], [73.8324, 15.3381], [73.7901, 15.3825], [73.7901, 15.4713], [73.7901, 15.5602], [73.7479, 15.6046], [73.7056, 15.649], [73.7056, 15.7378], [73.6633, 15.7822], [73.6211, 15.8266], [73.5788, 15.8711], [73.5365, 15.9155], [73.4943, 15.9599], [73.452, 16.0043], [73.452, 16.0931], [73.452, 16.1819], [73.452, 16.2708], [73.452, 16.3596], [73.4097, 16.404], [73.3675, 16.4484], [73.3252, 16.4928], [73.283, 16.5372], [73.3252, 16.5817], [73.3675, 16.6261], [73.3252, 16.6705], [73.283, 16.7149], [73.283, 16.8037], [73.283, 16.8926], [73.283, 16.9814], [73.283, 17.0702], [73.283, 17.159], [73.2407, 17.2034], [73.1984, 17.2479], [73.1984, 17.3367], [73.1984, 17.4255], [73.1984, 17.5143], [73.1562, 17.5587], [73.1139, 17.6032], [73.1139, 17.692], [73.1139, 17.7808], [73.1139, 17.8696], [73.0716, 17.914], [73.0294, 17.9585], [73.0294, 18.0473], [72.9871, 18.0917], [72.9448, 18.1361], [72.9448, 18.2249], [72.9448, 18.3138], [72.9448, 18.4026], [72.9026, 18.447], [72.8603, 18.4914], [72.9026, 18.5358], [72.9448, 18.5802], [72.9026, 18.6246], [72.8603, 18.6691], [72.8603, 18.7579], [72.9026, 18.8023], [72.9448, 18.8467], [72.9448, 18.9355], [72.9871, 18.9799], [73.0294, 19.0244], [72.9871, 19.0688], [72.9448, 19.0244], [72.9026, 18.9799], [72.8603, 19.0244], [72.8603, 19.1132], [72.8181, 19.1576], [72.7758, 19.202], [72.7758, 19.2908], [72.7758, 19.3797], [72.7758, 19.4685], [72.7335, 19.5129], [72.6913, 19.5573], [72.6913, 19.6461], [72.6913, 19.735], [72.6913, 19.8238], [72.6913, 19.9126], [72.6913, 20.0014], [72.6913, 20.0903], [72.7335, 20.1347], [72.7758, 20.1791], [72.7758, 20.2679], [72.7758, 20.3567], [72.8181, 20.4011], [72.8603, 20.4456], [72.8603, 20.5344], [72.8603, 20.6232], [72.8603, 20.712], [72.8603, 20.8009], [72.8181, 20.8453], [72.7758, 20.8897], [72.7758, 20.9785], [72.7758, 21.0673], [72.7335, 21.1117], [72.649, 21.1117], [72.6067, 21.1562], [72.6067, 21.245], [72.6067, 21.3338], [72.649, 21.3782], [72.6913, 21.4226], [72.6913, 21.5115], [72.649, 21.5559], [72.6067, 21.6003], [72.5645, 21.6447], [72.5222, 21.6891], [72.5222, 21.7779], [72.5222, 21.8668], [72.5222, 21.9556], [72.5222, 22.0444], [72.5222, 22.1332], [72.5645, 22.1777], [72.649, 22.1777], [72.7335, 22.1777], [72.7758, 22.2221], [72.7335, 22.2665], [72.649, 22.2665], [72.5645, 22.2665], [72.4799, 22.2665], [72.4377, 22.2221], [72.3954, 22.1777], [72.3532, 22.1332], [72.3109, 22.0888], [72.2686, 22.0444], [72.2264, 22.0], [72.1841, 21.9556], [72.2264, 21.9112], [72.2686, 21.8668], [72.2686, 21.7779], [72.2686, 21.6891], [72.2686, 21.6003], [72.2686, 21.5115], [72.2264, 21.467], [72.1841, 21.4226], [72.1418, 21.3782], [72.0996, 21.3338], [72.0996, 21.245], [72.0573, 21.2006], [72.015, 21.1562], [71.9728, 21.1117], [71.8883, 21.1117], [71.846, 21.0673], [71.8037, 21.0229], [71.7192, 21.0229], [71.6769, 20.9785], [71.6347, 20.9341], [71.5501, 20.9341], [71.5079, 20.8897], [71.4656, 20.8453], [71.3811, 20.8453], [71.2966, 20.8453], [71.212, 20.8453], [71.1698, 20.8009], [71.1275, 20.7564], [71.043, 20.7564], [71.0007, 20.712], [70.9585, 20.6676], [70.8739, 20.6676], [70.8317, 20.712], [70.7894, 20.7564], [70.7049, 20.7564], [70.6203, 20.7564], [70.5781, 20.8009], [70.5358, 20.8453], [70.4513, 20.8453], [70.409, 20.8897], [70.3668, 20.9341], [70.2822, 20.9341], [70.24, 20.9785], [70.1977, 21.0229], [70.1554, 21.0673], [70.1132, 21.1117], [70.0709, 21.1562], [70.0287, 21.2006], [69.9864, 21.245], [69.9441, 21.2894], [69.9019, 21.3338], [69.8596, 21.3782], [69.8173, 21.4226], [69.7751, 21.467], [69.7328, 21.5115], [69.7328, 21.6003], [69.6905, 21.6447], [69.606, 21.6447], [69.5638, 21.6891], [69.5215, 21.7335], [69.437, 21.7335], [69.3947, 21.7779], [69.3524, 21.8223], [69.3102, 21.8668], [69.2679, 21.9112], [69.2256, 21.9556], [69.1834, 22.0], [69.1411, 22.0444], [69.0989, 22.0888], [69.0566, 22.1332], [69.0143, 22.1777], [68.9721, 22.2221], [68.9721, 22.3109], [68.9721, 22.3997], [69.0143, 22.4441], [69.0566, 22.3997], [69.0989, 22.3553], [69.1411, 22.3109], [69.1834, 22.2665], [69.2679, 22.2665], [69.3102, 22.3109], [69.3524, 22.3553], [69.437, 22.3553], [69.4792, 22.3997], [69.5215, 22.4441], [69.5638, 22.3997], [69.606, 22.3553], [69.6905, 22.3553], [69.7328, 22.3997], [69.7751, 22.4441], [69.8596, 22.4441], [69.9019, 22.4885], [69.9441, 22.533], [70.0287, 22.533], [70.1132, 22.533], [70.1554, 22.5774], [70.1977, 22.6218], [70.24, 22.6662], [70.2822, 22.7106], [70.3245, 22.755], [70.3245, 22.8438], [70.3668, 22.8883], [70.409, 22.9327], [70.4513, 22.9771], [70.4936, 23.0215], [70.4513, 23.0659], [70.409, 23.0215], [70.3668, 22.9771], [70.2822, 22.9771], [70.1977, 22.9771], [70.1554, 22.9327], [70.1132, 22.8883], [70.0287, 22.8883], [69.9441, 22.8883], [69.8596, 22.8883], [69.8173, 22.8438], [69.7751, 22.7994], [69.7328, 22.755], [69.6905, 22.7106], [69.6483, 22.755], [69.606, 22.7994], [69.5215, 22.7994], [69.437, 22.7994], [69.3524, 22.7994], [69.2679, 22.7994], [69.2256, 22.8438], [69.1834, 22.8883], [69.0989, 22.8883], [69.0566, 22.9327], [69.0143, 22.9771], [68.9298, 22.9771], [68.8875, 23.0215], [68.8453, 23.0659], [68.7607, 23.0659], [68.7185, 23.1103], [68.6762, 23.1547], [68.634, 23.1991], [68.5917, 23.2436], [68.5494, 23.288], [68.5494, 23.3768], [68.5494, 23.4656], [68.5072, 23.51], [68.4649, 23.5544], [68.4649, 23.6433], [68.5072, 23.6877], [68.5917, 23.6877], [68.634, 23.7321], [68.6762, 23.7765], [68.7185, 23.8209], [68.6762, 23.8653], [68.634, 23.9097], [68.6762, 23.9542], [68.7185, 23.9986], [68.7607, 24.043], [68.803, 24.0874], [68.803, 24.1762], [68.8453, 24.2206], [68.8875, 24.265], [68.9298, 24.3095], [68.9721, 24.265], [69.0143, 24.2206], [69.0566, 24.265], [69.0989, 24.3095], [69.1411, 24.265], [69.1834, 24.2206], [69.2679, 24.2206], [69.3102, 24.265], [69.3524, 24.3095], [69.437, 24.3095], [69.4792, 24.265], [69.5215, 24.2206], [69.5638, 24.265], [69.606, 24.3095], [69.6483, 24.265], [69.6905, 24.2206], [69.7328, 24.1762], [69.7751, 24.1318], [69.8596, 24.1318], [69.9441, 24.1318], [70.0287, 24.1318], [70.0709, 24.1762], [70.0709, 24.265], [70.1132, 24.3095], [70.1977, 24.3095], [70.2822, 24.3095], [70.3668, 24.3095], [70.409, 24.3539], [70.4513, 24.3983], [70.5358, 24.3983], [70.5781, 24.3539], [70.5781, 24.265], [70.6203, 24.2206], [70.7049, 24.2206], [70.7894, 24.2206], [70.8739, 24.2206], [70.9162, 24.265], [70.9585, 24.3095], [71.043, 24.3095], [71.0852, 24.3539], [71.043, 24.3983], [71.0007, 24.4427], [71.0007, 24.5315], [71.0007, 24.6203], [71.043, 24.6648], [71.0852, 24.7092], [71.043, 24.7536], [71.0007, 24.798], [71.0007, 24.8868], [70.9585, 24.9312], [70.9162, 24.9756], [70.9162, 25.0645], [70.9162, 25.1533], [70.8739, 25.1977], [70.8317, 25.2421], [70.7894, 25.2865], [70.7471, 25.3309], [70.7049, 25.3754], [70.6626, 25.4198], [70.6626, 25.5086], [70.6626, 25.5974], [70.6626, 25.6862], [70.6203, 25.7307], [70.5781, 25.6862], [70.5358, 25.6418], [70.4513, 25.6418], [70.3668, 25.6418], [70.3245, 25.6862], [70.2822, 25.7307], [70.24, 25.7751], [70.1977, 25.8195], [70.1554, 25.8639], [70.1132, 25.9083], [70.0709, 25.9527], [70.0709, 26.0415], [70.1132, 26.086], [70.1554, 26.1304], [70.1554, 26.2192], [70.1554, 26.308], [70.1554, 26.3968], [70.1554, 26.4857], [70.1554, 26.5745], [70.1132, 26.6189], [70.0287, 26.6189], [69.9441, 26.6189], [69.8596, 26.6189], [69.7751, 26.6189], [69.7328, 26.6633], [69.6905, 26.7077], [69.606, 26.7077], [69.5215, 26.7077], [69.4792, 26.7521], [69.4792, 26.841], [69.4792, 26.9298], [69.4792, 27.0186], [69.5215, 27.063], [69.5638, 27.1074], [69.606, 27.1519], [69.6483, 27.1963], [69.6905, 27.2407], [69.7328, 27.2851], [69.7751, 27.3295], [69.8173, 27.3739], [69.8596, 27.4183], [69.9019, 27.4628], [69.9441, 27.5072], [69.9864, 27.5516], [70.0287, 27.596], [70.0709, 27.6404], [70.0709, 27.7292], [70.1132, 27.7736], [70.1554, 27.8181], [70.1977, 27.8625], [70.24, 27.9069], [70.2822, 27.9513], [70.3245, 27.9957], [70.3668, 28.0401], [70.4513, 28.0401], [70.5358, 28.0401], [70.5781, 27.9957], [70.6203, 27.9513], [70.6626, 27.9069], [70.6626, 27.8181], [70.7049, 27.7736], [70.7471, 27.7292], [70.7894, 27.6848], [70.8739, 27.6848], [70.9585, 27.6848], [71.0007, 27.7292], [71.043, 27.7736], [71.1275, 27.7736], [71.1698, 27.8181], [71.212, 27.8625], [71.2966, 27.8625], [71.3811, 27.8625], [71.4656, 27.8625], [71.5501, 27.8625], [71.6347, 27.8625], [71.7192, 27.8625], [71.7615, 27.9069], [71.8037, 27.9513], [71.8883, 27.9513], [71.9305, 27.9957], [71.9305, 28.0845], [71.9305, 28.1734], [71.9728, 28.2178], [72.0573, 28.2178], [72.0996, 28.2622], [72.1418, 28.3066], [72.1841, 28.351], [72.1841, 28.4398], [72.2264, 28.4842], [72.2686, 28.5287], [72.2686, 28.6175], [72.3109, 28.6619], [72.3532, 28.7063], [72.3954, 28.7507], [72.4377, 28.7951], [72.4799, 28.8395], [72.5645, 28.8395], [72.6067, 28.884], [72.649, 28.9284], [72.7335, 28.9284], [72.7758, 28.9728], [72.8181, 29.0172], [72.9026, 29.0172], [72.9448, 29.0616], [72.9871, 29.106], [73.0294, 29.1504], [73.0716, 29.1948], [73.1139, 29.2393], [73.1139, 29.3281], [73.1562, 29.3725], [73.1984, 29.4169], [73.1984, 29.5057], [73.2407, 29.5501], [73.283, 29.5946], [73.283, 29.6834], [73.3252, 29.7278], [73.3675, 29.7722], [73.3675, 29.861], [73.4097, 29.9054], [73.452, 29.9499], [73.4943, 29.9943], [73.5788, 29.9943], [73.6633, 29.9943], [73.7056, 30.0387], [73.7479, 30.0831], [73.8324, 30.0831], [73.8746, 30.1275], [73.9169, 30.1719], [73.9592, 30.2163], [73.9592, 30.3052], [73.9169, 30.3496], [73.8746, 30.394], [73.9169, 30.4384], [73.9592, 30.4828], [74.0014, 30.5272], [74.086, 30.5272], [74.1282, 30.5716], [74.1705, 30.616], [74.2128, 30.6605], [74.255, 30.7049], [74.2973, 30.7493], [74.2973, 30.8381], [74.3395, 30.8825], [74.3818, 30.9269], [74.4241, 30.9713], [74.5086, 30.9713], [74.5509, 31.0158], [74.5509, 31.1046], [74.5086, 31.149], [74.4663, 31.1934], [74.5086, 31.2378], [74.5509, 31.2822], [74.5509, 31.3711], [74.5931, 31.4155], [74.6354, 31.4599], [74.6354, 31.5487], [74.5931, 31.5931], [74.5509, 31.6375], [74.5509, 31.7264], [74.5509, 31.8152], [74.5931, 31.8596], [74.6354, 31.904], [74.6777, 31.9484], [74.7622, 31.9484], [74.8044, 31.9928], [74.8467, 32.0372], [74.9312, 32.0372], [75.0158, 32.0372], [75.1003, 32.0372], [75.1426, 32.0817], [75.1848, 32.1261], [75.2693, 32.1261], [75.3116, 32.1705], [75.3539, 32.2149], [75.3961, 32.2593], [75.3539, 32.3037], [75.3116, 32.3481], [75.2693, 32.3926], [75.1848, 32.3926], [75.1426, 32.437], [75.1003, 32.4814], [75.0158, 32.4814], [74.9312, 32.4814], [74.8467, 32.4814], [74.7622, 32.4814], [74.7199, 32.5258], [74.6777, 32.5702], [74.6354, 32.6146], [74.6354, 32.7034], [74.6777, 32.7479], [74.7199, 32.7923], [74.6777, 32.8367], [74.6354, 32.7923], [74.5931, 32.7479], [74.5086, 32.7479], [74.4663, 32.7923], [74.4663, 32.8811], [74.4241, 32.9255], [74.3818, 32.9699], [74.3395, 33.0143], [74.255, 33.0143], [74.2128, 33.0587], [74.1705, 33.1032], [74.1282, 33.1476], [74.086, 33.192], [74.0437, 33.2364], [74.086, 33.2808], [74.1282, 33.3252], [74.1705, 33.3696], [74.2128, 33.414], [74.1705, 33.4585], [74.1282, 33.5029], [74.086, 33.5473], [74.0437, 33.5917], [74.0014, 33.6361], [73.9592, 33.6805], [74.0014, 33.7249], [74.0437, 33.7693], [74.086, 33.8138], [74.1705, 33.8138], [74.2128, 33.8582], [74.255, 33.9026], [74.2973, 33.947], [74.255, 33.9914], [74.2128, 34.0358], [74.1705, 34.0802], [74.086, 34.0802], [74.0437, 34.0358], [74.0014, 33.9914], [73.9169, 33.9914], [73.8746, 34.0358], [73.8746, 34.1246], [73.9169, 34.1691], [73.9592, 34.2135], [73.9592, 34.3023], [73.9169, 34.3467], [73.8324, 34.3467], [73.7901, 34.3911], [73.8324, 34.4355], [73.8746, 34.4799], [73.9169, 34.5244], [73.9592, 34.5688], [73.9592, 34.6576], [74.0014, 34.702], [74.086, 34.702], [74.1705, 34.702], [74.2128, 34.7464], [74.255, 34.7908], [74.3395, 34.7908], [74.4241, 34.7908], [74.5086, 34.7908], [74.5931, 34.7908], [74.6354, 34.7464], [74.6777, 34.702], [74.7622, 34.702], [74.8467, 34.702], [74.9312, 34.702], [74.9735, 34.6576], [75.0158, 34.6132], [75.1003, 34.6132], [75.1848, 34.6132], [75.2693, 34.6132], [75.3116, 34.5688], [75.3539, 34.5244], [75.4384, 34.5244], [75.5229, 34.5244], [75.6074, 34.5244], [75.692, 34.5244], [75.7765, 34.5244], [75.8188, 34.5688], [75.861, 34.6132], [75.9456, 34.6132], [75.9878, 34.6576], [76.0301, 34.702], [76.0723, 34.6576], [76.1146, 34.6132], [76.1569, 34.6576], [76.1991, 34.702], [76.2837, 34.702], [76.3682, 34.702], [76.4105, 34.7464], [76.4527, 34.7908], [76.5372, 34.7908], [76.6218, 34.7908], [76.7063, 34.7908], [76.7486, 34.8352], [76.7486, 34.9241], [76.7908, 34.9685], [76.8754, 34.9685], [76.9599, 34.9685], [77.0021, 35.0129], [77.0444, 35.0573], [77.1289, 35.0573], [77.2135, 35.0573], [77.2557, 35.1017], [77.298, 35.1461], [77.3403, 35.1905], [77.3825, 35.235], [77.467, 35.235], [77.5093, 35.2794], [77.5516, 35.3238], [77.6361, 35.3238], [77.6784, 35.3682], [77.7206, 35.4126], [77.7629, 35.457], [77.8052, 35.5014]]}, "properties": {"name": "India Border"}}, {"type": "Feature", "geometry": {"type": "LineString", "coordinates": [[92.9355, 13.5616], [93.0201, 13.5616], [93.0623, 13.5172], [93.0623, 13.4284], [93.0201, 13.384], [92.9778, 13.3395], [93.0201, 13.2951], [93.0623, 13.2507], [93.0623, 13.1619], [93.0623, 13.0731], [93.0201, 13.0287], [92.9355, 13.0287], [92.8933, 12.9842], [92.8933, 12.8954], [92.9355, 12.851], [92.9778, 12.8066], [92.9778, 12.7178], [92.9778, 12.6289], [92.9778, 12.5401], [92.9778, 12.4513], [92.9355, 12.4069], [92.8933, 12.3625], [92.9355, 12.3181], [92.9778, 12.2736], [92.9355, 12.2292], [92.8933, 12.1848], [92.851, 12.1404], [92.8087, 12.1848], [92.7665, 12.2292], [92.7242, 12.2736], [92.7242, 12.3625], [92.7242, 12.4513], [92.6819, 12.4957], [92.6397, 12.5401], [92.6819, 12.5845], [92.7242, 12.6289], [92.7242, 12.7178], [92.7242, 12.8066], [92.7665, 12.851], [92.8087, 12.8954], [92.8087, 12.9842], [92.8087, 13.0731], [92.8087, 13.1619], [92.851, 13.2063], [92.8933, 13.2507], [92.851, 13.2951], [92.8087, 13.3395], [92.851, 13.384], [92.8933, 13.4284], [92.8933, 13.5172], [92.9355, 13.5616]]}, "properties": {"name": "India Border"}}, {"type": "Feature", "geometry": {"type": "LineString", "coordinates": [[92.6819, 12.2292], [92.7242, 12.1848], [92.7665, 12.1404], [92.8087, 12.096], [92.7665, 12.0516], [92.7242, 12.0072], [92.7665, 11.9628], [92.8087, 11.9183], [92.8087, 11.8295], [92.7665, 11.7851], [92.7242, 11.7407], [92.7242, 11.6519], [92.7242, 11.563], [92.6819, 11.5186], [92.6397, 11.563], [92.6397, 11.6519], [92.5974, 11.6963], [92.5552, 11.7407], [92.5552, 11.8295], [92.5974, 11.8739], [92.6397, 11.9183], [92.6397, 12.0072], [92.6397, 12.096], [92.6397, 12.1848], [92.6819, 12.2292]]}, "properties": {"name": "India Border"}}, {"type": "Feature", "geometry": {"type": "LineString", "coordinates": [[93.7808, 7.255], [93.8653, 7.255], [93.9076, 7.2106], [93.9076, 7.1218], [93.9076, 7.033], [93.9076, 6.9441], [93.9076, 6.8553], [93.8653, 6.8109], [93.8231, 6.8553], [93.7808, 6.8997], [93.7385, 6.9441], [93.6963, 6.9885], [93.654, 7.033], [93.654, 7.1218], [93.6963, 7.1662], [93.7385, 7.2106], [93.7808, 7.255]]}, "properties": {"name": "India Border"}}]}